[{"OBJECT_NAME":"STARLINK-31003","OBJECT_ID":"2023-191N","EPOCH":"2026-03-09T09:53:17.810880","MEAN_MOTION":15.2757637,"ECCENTRICITY":4.983e-5,"INCLINATION":43.0017,"RA_OF_ASC_NODE":104.5913,"ARG_OF_PERICENTER":273.2566,"MEAN_ANOMALY":86.8229,"EPHEMERIS_TYPE":0,"CLASSIFICATION_TYPE":"U","NORAD_CAT_ID":58520,"ELEMENT_SET_NO":999,"REV_AT_EPOCH":12543,"BSTAR":-3.9041589e-5,"MEAN_MOTION_DOT":-1.336e-5,"MEAN_MOTION_DDOT":0},{"OBJECT_NAME":"TIANMU-1 22","OBJECT_ID":"2023-208D","EPOCH":"2026-03-09T22:39:05.738688","MEAN_MOTION":15.29457749,"ECCENTRICITY":0.00031332,"INCLINATION":97.4379,"RA_OF_ASC_NODE":184.9419,"ARG_OF_PERICENTER":351.9312,"MEAN_ANOMALY":8.1877,"EPHEMERIS_TYPE":0,"CLASSIFICATION_TYPE":"U","NORAD_CAT_ID":58663,"ELEMENT_SET_NO":999,"REV_AT_EPOCH":12215,"BSTAR":0.00038239675,"MEAN_MOTION_DOT":0.00010851,"MEAN_MOTION_DDOT":0}]
